[{"OBJECT_NAME":"ION SCV-004","OBJECT_ID":"2022-002K","EPOCH":"2026-03-09T16:32:03.244416","MEAN_MOTION":15.29369331,"ECCENTRICITY":0.00072157,"INCLINATION":97.2961,"RA_OF_ASC_NODE":128.2294,"ARG_OF_PERICENTER":1.6783,"MEAN_ANOMALY":358.448,"EPHEMERIS_TYPE":0,"CLASSIFICATION_TYPE":"U","NORAD_CAT_ID":50993,"ELEMENT_SET_NO":999,"REV_AT_EPOCH":23008,"BSTAR":0.00023198467,"MEAN_MOTION_DOT":6.538e-5,"MEAN_MOTION_DDOT":0},{"OBJECT_NAME":"STARLINK-35335","OBJECT_ID":"2025-243D","EPOCH":"2026-03-09T18:29:14.056512","MEAN_MOTION":15.30202745,"ECCENTRICITY":9.544e-5,"INCLINATION":53.158,"RA_OF_ASC_NODE":245.0526,"ARG_OF_PERICENTER":68.2422,"MEAN_ANOMALY":291.8681,"EPHEMERIS_TYPE":0,"CLASSIFICATION_TYPE":"U","NORAD_CAT_ID":66180,"ELEMENT_SET_NO":999,"REV_AT_EPOCH":2066,"BSTAR":0.0011409716,"MEAN_MOTION_DOT":0.00033589,"MEAN_MOTION_DDOT":0}]
